{"type": "FeatureCollection", "features": [ {"type": "Feature", "properties": {"norad_id": 34546, "name": "COSMOS 2251 DEB", "group": "cosmos-2251-debris", "lat": 61.24152381658431, "lon": 40.28267724569758, "alt_km": 747.704271784808, "timestamp": "2025-12-11T08:58:27.519857+00:00", "meta": {"OBJECT_NAME": "COSMOS 2251 DEB", "OBJECT_ID": "1993-036UG", "EPOCH": "2025-12-10T21:21:56.474208", "MEAN_MOTION": 14.45398317, "ECCENTRICITY": 0.00219, "INCLINATION": 74.031, "RA_OF_ASC_NODE": 252.6344, "ARG_OF_PERICENTER": 326.5592, "MEAN_ANOMALY": 151.6542, "EPHEMERIS_TYPE": 0, "CLASSIFICATION_TYPE": "U", "NORAD_CAT_ID": 34546, "ELEMENT_SET_NO": 999, "REV_AT_EPOCH": 87999, "BSTAR": 0.0010002, "MEAN_MOTION_DOT": 3.504e-05, "MEAN_MOTION_DDOT": 0}, "tle": {"line1": "1 34546U 93036UG  25344.89023697  .00003504  00000+0  10002-2 0  9991", "line2": "2 34546  74.0310 252.6344 0021900 326.5592 151.6542 14.45398317879990"}}, "geometry": {"type": "Point", "coordinates": [40.28267724569758, 61.24152381658431]}}, {"type": "Feature", "properties": {"norad_id": 34547, "name": "COSMOS 2251 DEB", "group": "cosmos-2251-debris", "lat": 9.10900320239283, "lon": -79.24798219803766, "alt_km": 642.9856517861954, "timestamp": "2025-12-11T08:58:27.519867+00:00", "meta": {"OBJECT_NAME": "COSMOS 2251 DEB", "OBJECT_ID": "1993-036UH", "EPOCH": "2025-12-10T09:22:16.076640", "MEAN_MOTION": 14.72244082, "ECCENTRICITY": 0.001775, "INCLINATION": 74.0302, "RA_OF_ASC_NODE": 105.2971, "ARG_OF_PERICENTER": 184.9707, "MEAN_ANOMALY": 175.1292, "EPHEMERIS_TYPE": 0, "CLASSIFICATION_TYPE": "U", "NORAD_CAT_ID": 34547, "ELEMENT_SET_NO": 999, "REV_AT_EPOCH": 88487, "BSTAR": 0.0032528696, "MEAN_MOTION_DOT": 0.00020618, "MEAN_MOTION_DDOT": 0}, "tle": {"line1": "1 34547U 93036UH  25344.39046385  .00020618  00000+0  32529-2 0  9999", "line2": "2 34547  74.0302 105.2971 0017750 184.9707 175.1292 14.72244082884878"}}, "geometry": {"type": "Point", "coordinates": [-79.24798219803766, 9.10900320239283]}}, {"type": "Feature", "properties": {"norad_id": 34553, "name": "COSMOS 2251 DEB", "group": "cosmos-2251-debris", "lat": 39.49774257746506, "lon": 0.8316382950951777, "alt_km": 706.6492992203312, "timestamp": "2025-12-11T08:58:27.519878+00:00", "meta": {"OBJECT_NAME": "COSMOS 2251 DEB", "OBJECT_ID": "1993-036UP", "EPOCH": "2025-12-11T00:47:41.289792", "MEAN_MOTION": 14.57695611, "ECCENTRICITY": 0.0019383, "INCLINATION": 74.0246, "RA_OF_ASC_NODE": 195.1379, "ARG_OF_PERICENTER": 272.6509, "MEAN_ANOMALY": 238.2498, "EPHEMERIS_TYPE": 0, "CLASSIFICATION_TYPE": "U", "NORAD_CAT_ID": 34553, "ELEMENT_SET_NO": 999, "REV_AT_EPOCH": 88071, "BSTAR": 0.0015951, "MEAN_MOTION_DOT": 7.277e-05, "MEAN_MOTION_DDOT": 0}, "tle": {"line1": "1 34553U 93036UP  25345.03311678  .00007277  00000+0  15951-2 0  9994", "line2": "2 34553  74.0246 195.1379 0019383 272.6509 238.2498 14.57695611880710"}}, "geometry": {"type": "Point", "coordinates": [0.8316382950951777, 39.49774257746506]}}, {"type": "Feature", "properties": {"norad_id": 34554, "name": "COSMOS 2251 DEB", "group": "cosmos-2251-debris", "lat": -17.72800903247281, "lon": -63.74290573319342, "alt_km": 754.824491833665, "timestamp": "2025-12-11T08:58:27.519888+00:00", "meta": {"OBJECT_NAME": "COSMOS 2251 DEB", "OBJECT_ID": "1993-036UQ", "EPOCH": "2025-12-10T15:31:04.340064", "MEAN_MOTION": 14.37931883, "ECCENTRICITY": 0.0022891, "INCLINATION": 74.0386, "RA_OF_ASC_NODE": 302.8453, "ARG_OF_PERICENTER": 5.6824, "MEAN_ANOMALY": 172.4043, "EPHEMERIS_TYPE": 0, "CLASSIFICATION_TYPE": "U", "NORAD_CAT_ID": 34554, "ELEMENT_SET_NO": 999, "REV_AT_EPOCH": 87725, "BSTAR": 0.0005826, "MEAN_MOTION_DOT": 1.739e-05, "MEAN_MOTION_DDOT": 0}, "tle": {"line1": "1 34554U 93036UQ  25344.64657801  .00001739  00000+0  58260-3 0  9990", "line2": "2 34554  74.0386 302.8453 0022891   5.6824 172.4043 14.37931883877250"}}, "geometry": {"type": "Point", "coordinates": [-63.74290573319342, -17.72800903247281]}}, {"type": "Feature", "properties": {"norad_id": 34556, "name": "COSMOS 2251 DEB", "group": "cosmos-2251-debris", "lat": -52.350900327182345, "lon": 105.72986271575927, "alt_km": 645.763309257024, "timestamp": "2025-12-11T08:58:27.519898+00:00", "meta": {"OBJECT_NAME": "COSMOS 2251 DEB", "OBJECT_ID": "1993-036US", "EPOCH": "2025-12-11T03:30:41.380992", "MEAN_MOTION": 14.77714243, "ECCENTRICITY": 0.0008015, "INCLINATION": 74.0163, "RA_OF_ASC_NODE": 127.9874, "ARG_OF_PERICENTER": 187.1963, "MEAN_ANOMALY": 346.9712, "EPHEMERIS_TYPE": 0, "CLASSIFICATION_TYPE": "U", "NORAD_CAT_ID": 34556, "ELEMENT_SET_NO": 999, "REV_AT_EPOCH": 88305, "BSTAR": 0.0035687, "MEAN_MOTION_DOT": 0.00025661, "MEAN_MOTION_DDOT": 0}, "tle": {"line1": "1 34556U 93036US  25345.14631228  .00025661  00000+0  35687-2 0  9990", "line2": "2 34556  74.0163 127.9874 0008015 187.1963 346.9712 14.77714243883059"}}, "geometry": {"type": "Point", "coordinates": [105.72986271575927, -52.350900327182345]}}, {"type": "Feature", "properties": {"norad_id": 34560, "name": "COSMOS 2251 DEB", "group": "cosmos-2251-debris", "lat": -43.64148597511618, "lon": -19.343902941891418, "alt_km": 650.3717647605163, "timestamp": "2025-12-11T08:58:27.519909+00:00", "meta": {"OBJECT_NAME": "COSMOS 2251 DEB", "OBJECT_ID": "1993-036UW", "EPOCH": "2025-12-10T10:53:17.120832", "MEAN_MOTION": 14.72032238, "ECCENTRICITY": 0.00148152, "INCLINATION": 74.017, "RA_OF_ASC_NODE": 146.5845, "ARG_OF_PERICENTER": 228.0209, "MEAN_ANOMALY": 162.9903, "EPHEMERIS_TYPE": 0, "CLASSIFICATION_TYPE": "U", "NORAD_CAT_ID": 34560, "ELEMENT_SET_NO": 999, "REV_AT_EPOCH": 88218, "BSTAR": 0.0034126657, "MEAN_MOTION_DOT": 0.00021514, "MEAN_MOTION_DDOT": 0}, "tle": {"line1": "1 34560U 93036UW  25344.45367038  .00021514  00000+0  34127-2 0  9994", "line2": "2 34560  74.0170 146.5845 0014815 228.0209 162.9903 14.72032238882183"}}, "geometry": {"type": "Point", "coordinates": [-19.343902941891418, -43.64148597511618]}}, {"type": "Feature", "properties": {"norad_id": 34563, "name": "COSMOS 2251 DEB", "group": "cosmos-2251-debris", "lat": 59.19062003318433, "lon": -2.4237644937632115, "alt_km": 740.8706919916458, "timestamp": "2025-12-11T08:58:27.519919+00:00", "meta": {"OBJECT_NAME": "COSMOS 2251 DEB", "OBJECT_ID": "1993-036UZ", "EPOCH": "2025-12-10T10:00:11.559744", "MEAN_MOTION": 14.46498513, "ECCENTRICITY": 0.00138774, "INCLINATION": 74.0378, "RA_OF_ASC_NODE": 208.0451, "ARG_OF_PERICENTER": 302.0366, "MEAN_ANOMALY": 232.4749, "EPHEMERIS_TYPE": 0, "CLASSIFICATION_TYPE": "U", "NORAD_CAT_ID": 34563, "ELEMENT_SET_NO": 999, "REV_AT_EPOCH": 88163, "BSTAR": 0.00065111263, "MEAN_MOTION_DOT": 2.32e-05, "MEAN_MOTION_DDOT": 0}, "tle": {"line1": "1 34563U 93036UZ  25344.41680046  .00002320  00000+0  65111-3 0  9992", "line2": "2 34563  74.0378 208.0451 0013877 302.0366 232.4749 14.46498513881630"}}, "geometry": {"type": "Point", "coordinates": [-2.4237644937632115, 59.19062003318433]}}, {"type": "Feature", "properties": {"norad_id": 34564, "name": "COSMOS 2251 DEB", "group": "cosmos-2251-debris", "lat": -68.96409548097317, "lon": -167.57600860069104, "alt_km": 756.521417661068, "timestamp": "2025-12-11T08:58:27.519929+00:00", "meta": {"OBJECT_NAME": "COSMOS 2251 DEB", "OBJECT_ID": "1993-036VA", "EPOCH": "2025-12-10T23:23:53.907072", "MEAN_MOTION": 14.40684966, "ECCENTRICITY": 0.001896, "INCLINATION": 74.0326, "RA_OF_ASC_NODE": 241.2766, "ARG_OF_PERICENTER": 345.4873, "MEAN_ANOMALY": 30.0328, "EPHEMERIS_TYPE": 0, "CLASSIFICATION_TYPE": "U", "NORAD_CAT_ID": 34564, "ELEMENT_SET_NO": 999, "REV_AT_EPOCH": 87981, "BSTAR": 0.0003776, "MEAN_MOTION_DOT": 1.182e-05, "MEAN_MOTION_DDOT": 0}, "tle": {"line1": "1 34564U 93036VA  25344.97492948  .00001182  00000+0  37760-3 0  9990", "line2": "2 34564  74.0326 241.2766 0018960 345.4873  30.0328 14.40684966879819"}}, "geometry": {"type": "Point", "coordinates": [-167.57600860069104, -68.96409548097317]}}, {"type": "Feature", "properties": {"norad_id": 34567, "name": "COSMOS 2251 DEB", "group": "cosmos-2251-debris", "lat": 49.23249796684903, "lon": 178.62380313266615, "alt_km": 860.5406062730763, "timestamp": "2025-12-11T08:58:27.519940+00:00", "meta": {"OBJECT_NAME": "COSMOS 2251 DEB", "OBJECT_ID": "1993-036VD", "EPOCH": "2025-12-10T17:38:10.834368", "MEAN_MOTION": 14.24013255, "ECCENTRICITY": 0.00745103, "INCLINATION": 74.0398, "RA_OF_ASC_NODE": 160.3884, "ARG_OF_PERICENTER": 235.1092, "MEAN_ANOMALY": 141.9884, "EPHEMERIS_TYPE": 0, "CLASSIFICATION_TYPE": "U", "NORAD_CAT_ID": 34567, "ELEMENT_SET_NO": 999, "REV_AT_EPOCH": 87096, "BSTAR": 0.00034446962, "MEAN_MOTION_DOT": 7.88e-06, "MEAN_MOTION_DDOT": 0}, "tle": {"line1": "1 34567U 93036VD  25344.73484762  .00000788  00000+0  34447-3 0  9992", "line2": "2 34567  74.0398 160.3884 0074510 235.1092 141.9884 14.24013255870969"}}, "geometry": {"type": "Point", "coordinates": [178.62380313266615, 49.23249796684903]}}, {"type": "Feature", "properties": {"norad_id": 34569, "name": "COSMOS 2251 DEB", "group": "cosmos-2251-debris", "lat": -33.05287522479417, "lon": 31.374573579071274, "alt_km": 927.6312858356405, "timestamp": "2025-12-11T08:58:27.519950+00:00", "meta": {"OBJECT_NAME": "COSMOS 2251 DEB", "OBJECT_ID": "1993-036VF", "EPOCH": "2025-12-09T22:32:51.153216", "MEAN_MOTION": 14.24741218, "ECCENTRICITY": 0.01571902, "INCLINATION": 73.9904, "RA_OF_ASC_NODE": 203.1997, "ARG_OF_PERICENTER": 32.2311, "MEAN_ANOMALY": 27.9249, "EPHEMERIS_TYPE": 0, "CLASSIFICATION_TYPE": "U", "NORAD_CAT_ID": 34569, "ELEMENT_SET_NO": 999, "REV_AT_EPOCH": 86928, "BSTAR": 0.00077344454, "MEAN_MOTION_DOT": 2.023e-05, "MEAN_MOTION_DDOT": 0}, "tle": {"line1": "1 34569U 93036VF  25343.93948094  .00002023  00000+0  77344-3 0  9995", "line2": "2 34569  73.9904 203.1997 0157190  32.2311  27.9249 14.24741218869287"}}, "geometry": {"type": "Point", "coordinates": [31.374573579071274, -33.05287522479417]}}]}